TIANMU-1 21             
1 58662U 23208C   26201.87698487  .00006380  00000+0  18653-3 0  9992
2 58662  97.4529 321.8644 0007259 183.6630 176.4561 15.35615912142738
TIANMU-1 22             
1 58663U 23208D   26201.85703969  .00005152  00000+0  17207-3 0  9993
2 58663  97.4521 318.2517 0003285 195.3919 164.7222 15.31476160142487
TIANMU-1 15             
1 58700U 24004A   26201.58649378  .00003225  00000+0  12469-3 0  9997
2 58700  97.4676  27.7779 0006507 206.6767 153.4138 15.26946470140871
TIANMU-1 16             
1 58701U 24004B   26201.64112271  .00003055  00000+0  11792-3 0  9991
2 58701  97.4625  27.0462 0004790 221.1219 138.9659 15.27049787140887
TIANMU-1 17             
1 58702U 24004C   26201.62661302  .00003154  00000+0  12166-3 0  9990
2 58702  97.4652  27.5288 0004217 226.3501 133.7388 15.27047493140877
TIANMU-1 18             
1 58703U 24004D   26201.60300465  .00003178  00000+0  12288-3 0  9990
2 58703  97.4668  27.7684 0004243 201.8777 158.2281 15.26962023140877
INSAT-3DS               
1 58990U 24033A   26201.84843095 -.00000156  00000+0  00000+0 0  9996
2 58990   0.0760 263.7096 0001294 220.1689 202.2239  1.00270778 47400
METEOR-M2 4             
1 59051U 24039A   26201.87721903  .00000021  00000+0  28861-4 0  9997
2 59051  98.7029 160.7554 0008230  74.7074 285.5013 14.22432608124055
GOES 19                 
1 60133U 24119A   26201.46088228 -.00000250  00000+0  00000+0 0  9995
2 60133   0.0196 138.2572 0000287  48.2970 202.4001  1.00272602  7293
MTG-S1                  
1 64723U 25143A   26201.33313275 -.00000008  00000+0  00000+0 0  9992
2 64723   0.5815 346.3135 0003247 258.0118 173.3546  1.00275165  3750
METOP-SGA1              
1 65159U 25172A   26195.76442858  .00000019  00000+0  29163-4 0  9994
2 65159  98.6631 254.9090 0007098 333.3306  26.7504 14.19819127 47700
FENGYUN 3H              
1 65815U 25219A   26201.79431137  .00000012  00000+0  26132-4 0  9990
2 65815  98.6770 141.9111 0001023  62.0460 298.0820 14.19925299 42158
